#dP2024  7  3  0  0  0.00000000      96 __u+U IGS20 FIT  IAC
## 2321 259200.00000000   900.00000000 60494 0.0000000000000
+  127   C02C03C04C05C06C07C08C09C10C11C12C13C14C16C19C20C21
+        C22C23C24C25C26C27C28C29C30C32C33C34C35C36C37C38C39
+        C40C41C42C43C44C45C60E02E03E04E05E07E08E09E10E11E12
+        E13E14E15E18E19E21E25E26E27E30E31E33E34E36G01G02G03
+        G04G05G06G07G08G09G10G11G12G13G14G15G16G17G18G19G20
+        G21G22G23G24G25G26G27G28G29G30G31G32J02J03J04J07R01
+        R02R03R04R05R06R07R08R09R10R11R12R13R14R15R16R17R18
+        R19R20R21R22R23R24R25R26  0  0  0  0  0  0  0  0  0
++         0  0  0  0  0  0  0  0  0  0  0  0  0  0  0  0  0
++         0  0  0  0  0  0  0  0  0  0  0  0  0  0  0  0  0
++         0  0  0  0  0  0  0  0  0  0  0  0  0  0  0  0  0
++         0  0  0  0  0  0  0  0  0  0  0  0  0  0  0  0  0
++         0  0  0  0  0  0  0  0  0  0  0  0  0  0  0  0  0
++         0  0  0  0  0  0  0  0  0  0  0  0  0  0  0  0  0
++         0  0  0  0  0  0  0  0  0  0  0  0  0  0  0  0  0
++         0  0  0  0  0  0  0  0  0  0  0  0  0  0  0  0  0
%c M  cc GPS ccc cccc cccc cccc cccc ccccc ccccc ccccc ccccc
%c cc cc ccc ccc cccc cccc cccc cccc ccccc ccccc ccccc ccccc
%f  0.0000000  0.000000000  0.00000000000  0.000000000000000
%f  0.0000000  0.000000000  0.00000000000  0.000000000000000
%i    0    0    0    0      0      0      0      0         0
%i    0    0    0    0      0      0      0      0         0
/* INFORMATION & ANALYSIS CENTER (IAC)            RAPID DATA
/* S/V CLOCKS ARE ALIGNED TO GNSS TIME                      
/* G:C1WC2W R:C1PC2P E:C1XC5X C:C2IC6I J:C1CC2S             
/* PCV:IGS20_2317 OL/AL:FES2004  NONE     YN ORB:CoN CLK:CoN
*  2024 07 03 22 30  0.00000000
PC02   4444.996215  41866.141608  -1911.415899    824.116842
PC03 -14661.637437  39501.978696  -1238.043345    506.980739
PC04 -39638.700244  14421.608267   -208.537533   -632.874229
PC05  21879.332892  35990.109239  -1454.410052   -636.059310
PC06  -7432.541980  39902.495475 -10753.918102    559.670305
PC07  -5536.781757  27442.303672  31654.658096   -581.881454
PC08 -19294.812181  28451.107456 -24592.031527   -277.074687
PC09  -1699.392367  41779.840362   -181.666794     19.766835
PC10   2113.598891  29284.753630  30743.362970    -59.264224
PC11   7558.249947 -17693.767523 -20142.985817    644.705601
PC12  16827.976509   2245.574683 -22115.927919   -261.462626
PC13 -13220.158403  29078.915789 -27522.855545    438.671290
PC14  16369.225352 -11373.760835  19564.180352    911.241980
PC16  -7526.930792  39610.103561 -11432.390703   -632.110014
PC19  -6136.644647  14738.159594 -22867.228372   -916.578678
PC20 -22705.150268   7104.563238 -14550.480872   -645.413829
PC21  27114.612635   5679.994219  -3504.775955   -962.160574
PC22  15010.518136  14437.597657 -18599.915638     49.145974
PC23  -3746.607457 -19134.024295 -19952.591776   -794.165358
PC24  20878.132639 -15145.356032  10619.692242    889.260127
PC25  11543.473138 -24521.371843  -6614.433179    442.075370
PC26  17459.045925   2356.159603  21620.902455   -314.711047
PC27 -18282.408826 -11587.880433  17592.160910    335.792853
PC28 -13393.348405 -24108.199820   4245.005628    258.469050
PC29   -470.526653  23630.254390  14832.991399    303.416694
PC30 -14097.090127   7780.098483  22780.206392   -121.242378
PC32 -27095.176567  -5543.402472   3641.214812   -663.568424
PC33   6224.177259 -14778.605090  22838.711572   -960.317336
PC34  13230.464617  -9566.484382 -22648.016321    469.366466
PC35  14103.522396  23752.770201  -3855.357205    322.177326
PC36 -11965.797537  24291.710634   6792.840378    127.014142
PC37 -17400.907305  -2758.857453 -21630.071304   -929.588969
PC38 -24645.146574  29953.955031 -16662.625681    165.069081
PC39  -9792.817505  36502.532088 -18351.091338     -9.006752
PC40  -9652.875324  21531.597187  34962.879153    -78.350141
PC41 -14093.467512 -14660.832664  19147.401676   -951.227314
PC42  23862.952505  -6158.614364  13166.082010   -450.181761
PC43   1318.604149 -23189.541733 -15492.362365     77.570098
PC44  18838.959726  10929.218588 -17451.373874    522.353729
PC45   3294.493827  19310.371630  19886.962413   -100.715991
PC60   7262.465650  41520.524649  -1334.486300     -0.672518
PE02  -8832.506128 -14645.241321 -24160.784907    140.477662
PE03 -16442.899639 -22805.605699   9226.005948   -124.545563
PE04  24933.451203  12575.520512   9839.477382   -436.414262
PE05   1504.659451 -19343.410592  22357.165833   4762.717396
PE07 -18901.933687   4240.184308 -22369.842389   -129.183373
PE08 -24827.987764 -13313.525678  -9051.645743   -297.058464
PE09  18903.629626  -4033.282852  22426.800550   -502.549809
PE10  16635.338630  -4426.015695 -24089.912579   -637.652469
PE11  15881.814080 -15859.746231 -19319.135385   2469.943127
PE12  15007.418084   6434.095621 -24697.435290  -1108.630131
PE13 -15917.524391  15312.852155  19700.564673    -22.718672
PE14  24028.361822  -1926.606137 -20491.002173     99.464747
PE15 -14750.143991  -7092.868243  24662.657876   -112.632767
PE18 -10573.611537  12611.713783  19361.441193    289.625381
PE19  14859.129633  23120.893889 -10990.363330    227.090409
PE21 -12311.884310  18467.620779  19584.468289   -603.441833
PE25  12757.230970 -18429.666286 -19326.112900      6.476613
PE26  -7453.962865  28514.879278   2763.462887    501.972869
PE27 -27032.023976  11593.755385   3340.323462   -391.207736
PE30 -25600.044642  -2191.658748 -14708.980194   -469.833966
PE31  25628.152206   2039.683726  14682.548964    -28.272820
PE33   4636.832199  25279.388950 -14694.847396     13.413785
PE34  -4990.974089 -24971.401957  15070.694561   -120.586806
PE36   7779.816800 -28367.545066  -3339.636989   -249.970806
PG01 -12656.019231 -11128.934389 -20973.996190    248.488022
PG02 -13888.858047  12985.543016  18893.178453   -405.900965
PG03 -22333.292511  12988.376590  -6044.842791    442.357367
PG04 -14352.525450   7047.941473 -21214.432863    396.397674
PG05  24527.801801  -3713.581555  -9785.604685   -178.516052
PG06   5988.748722  21468.301881 -14302.138936    182.646871
PG07  -5577.849691  25538.374748  -2423.240111    -77.617482
PG08 -21565.481989  -2244.926146  15509.630645    258.685239
PG09  -2664.012230  16322.264972 -20856.062823    259.118176
PG10  -5949.306965 -13545.412608  22269.717138    -57.310608
PG11  13160.112633   9032.201392 -21215.390616   -698.141472
PG12  24092.282646 -10496.396670  -3943.346360   -519.340625
PG13  21256.671316  11872.965838  10680.875187    662.185258
PG14   1610.710206  15793.890534  21310.075048    440.378522
PG15  21616.681328   -425.123311  15044.086998    177.105279
PG16 -23872.938507  -1862.173701 -12289.910831   -246.709941
PG17   9734.629129  21015.645502  13272.107310    684.270715
PG18   5872.022787 -25687.410039  -2248.260073   -632.555735
PG19  16676.250303  20483.675422   4248.898534    505.349033
PG20  19684.701207   2453.914196 -17523.510894    373.147009
PG21 -15108.585452   6445.542769  21084.309815    111.298836
PG22   9673.891461  12831.824563  21521.186662    -35.227289
PG23   7266.063788 -16974.674342  19035.402104    265.339047
PG24  14455.076745 -11135.493585  18736.135300   -481.419406
PG25  16727.342895 -16541.855208 -12410.486931    498.129386
PG26 -14897.434844  -9384.079682 -20131.177988    126.300606
PG27 -22883.423833 -12137.012131   6509.053035    -30.187723
PG28  -5796.245615 -22957.833983 -12042.316315   -316.134726
PG29   6942.936359 -13759.751296 -21666.206978   -591.306416
PG30   1891.974221  25276.854341   7609.181891   -363.865917
PG31 -11822.453780 -13523.258415 -19655.381550   -227.018568
PG32 -12969.786214 -20324.081216  11577.792322   -613.873294
PJ02 -31539.404903  24753.711808  18097.839081     -0.467338
PJ03 -27214.823487  27452.547987  22107.882042     -1.020107
PJ04 -28287.227447  20557.071173 -18415.105165     50.477150
PJ07 -25353.019548  33688.443376     19.322534     -0.016823
PR01  -4004.615817  10213.709148 -23028.521015     90.281510
PR02  13465.216915  12803.528590 -17400.045744    -23.558451
PR03  24027.801890   8282.231948  -1749.768246    103.196024
PR04  21059.634049   -242.707056  14410.906405    243.852995
PR05   6938.247913  -8859.641596  22899.982452    134.044120
PR06 -15104.371216 -12267.970884  16489.333057   -170.341180
PR07 -24198.128951  -8074.023446   1148.681231     85.896893
PR08 -20989.199560    556.343400 -14449.128992     -5.559413
PR09   -748.789279 -14103.629259 -21237.575818    195.705655
PR10 -12692.543264  -2495.085792 -21999.707423   -185.198170
PR11 -19888.178319  12054.279061 -10441.369332     19.346933
PR12 -14163.594085  19227.022540   9009.095143     42.037096
PR13  -1892.583536  15349.171749  20277.689608    -48.957791
PR14  14225.927347    667.936604  21185.970875     26.656406
PR15  20102.252119 -12932.495919   8946.246295     78.226541
PR16  14303.322628 -19237.384008  -8759.043113     27.033448
PR17  11665.627031  12439.751632 -18985.634725    101.435690
PR18   9599.884680  -5087.939188 -23071.431927    150.152489
PR19   4254.413945 -18797.545720 -16709.977245   -282.594489
PR20  -5784.568823 -24651.352427   3237.353716   -115.553851
PR21 -11456.068819 -12841.999092  18808.841733   -114.539752
PR22  -9829.424080   6136.504091  22745.686913     94.057234
PR23  -2316.405672  21012.193464  14264.780048   -125.781421
PR24   7170.112644  24205.361159  -3727.428273    -62.358446
PR25 -11448.344061 -12477.097193  19068.589856    -94.515507
PR26 -21673.916102    -32.393438 -13410.308684     -4.866527
EOF
